#dV2023  2 16 22  0  0.00000000    1682       CTS   FIT  GFZ
## 2249 424800.00000000    30.00000000 59991 0.9166666666667
+    1   L64  0  0  0  0  0  0  0  0  0  0  0  0  0  0  0  0
+          0  0  0  0  0  0  0  0  0  0  0  0  0  0  0  0  0
+          0  0  0  0  0  0  0  0  0  0  0  0  0  0  0  0  0
+          0  0  0  0  0  0  0  0  0  0  0  0  0  0  0  0  0
+          0  0  0  0  0  0  0  0  0  0  0  0  0  0  0  0  0
++         0  0  0  0  0  0  0  0  0  0  0  0  0  0  0  0  0
++         0  0  0  0  0  0  0  0  0  0  0  0  0  0  0  0  0
++         0  0  0  0  0  0  0  0  0  0  0  0  0  0  0  0  0
++         0  0  0  0  0  0  0  0  0  0  0  0  0  0  0  0  0
++         0  0  0  0  0  0  0  0  0  0  0  0  0  0  0  0  0
%c L  cc GPS ccc cccc cccc cccc cccc ccccc ccccc ccccc ccccc
%c cc cc ccc ccc cccc cccc cccc cccc ccccc ccccc ccccc ccccc
%f  0.0000000  0.000000000  0.00000000000  0.000000000000000
%f  0.0000000  0.000000000  0.00000000000  0.000000000000000
%i    0    0    0    0      0      0      0      0         0
%i    0    0    0    0      0      0      0      0         0
/* CCCCCCCCCCCCCCCCCCCCCCCCCCCCCCCCCCCCCCCCCCCCCCCCCCCCCCCCCCCCCCCCCCCCCCCCCCCCC
/* C                             GFZ RSO-ORBIT                                 C
/* C DOI: https://doi.org/10.5880/GFZ_ORBIT/RSO/L64_G_v02                      C
/* C                                                                           C
/* C DORIS        RMS: not applicable                                          C
/* C GNSS-E Code  RMS: not applicable                                          C
/* C GNSS-E Phase RMS: not applicable                                          C
/* C GNSS-G Code  RMS:  48.372 [cm]   Obs.acc.:     13771 Obs.eli.:       875  C
/* C GNSS-G Phase RMS:   4.256 [mm]   Obs.acc.:     13771 Obs.eli.:       875  C
/* C SLR          RMS:   1.529 [cm]   Obs.acc.:        55 Obs.eli.:         0  C
/* C                                                                           C
/* CCCCCCCCCCCCCCCCCCCCCCCCCCCCCCCCCCCCCCCCCCCCCCCCCCCCCCCCCCCCCCCCCCCCCCCCCCCCC
*  2023  2 17  7 46 30.00000000
PL64  -1389.186724   6515.992602   1693.680751  18058.792843
VL64   7354.576776 -17821.752523  73731.068588 999999.999999
*  2023  2 17  7 47  0.00000000
PL64  -1366.484948   6458.902400   1913.894403  18059.252955
VL64   7776.807153 -20235.262635  73064.452870 999999.999999
*  2023  2 17  7 47 30.00000000
PL64  -1342.544875   6394.601120   2131.986364  18059.713078
VL64   8180.045459 -22628.679374  72316.735857 999999.999999
*  2023  2 17  7 48  0.00000000
PL64  -1317.424025   6323.153164   2347.714524  18060.173194
VL64   8563.934783 -24999.257001  71488.727921 999999.999999
*  2023  2 17  7 48 30.00000000
PL64  -1291.180940   6244.631141   2560.839339  18060.633301
VL64   8928.151394 -27344.272557  70581.330872 999999.999999
*  2023  2 17  7 49  0.00000000
PL64  -1263.875080   6159.115788   2771.124109  18061.093424
VL64   9272.405408 -29661.030212  69595.537084 999999.999999
*  2023  2 17  7 49 30.00000000
PL64  -1235.566726   6066.695884   2978.335243  18061.553547
VL64   9596.441409 -31946.864459  68532.427345 999999.999999
*  2023  2 17  7 50  0.00000000
PL64  -1206.316872   5967.468158   3182.242523  18062.013666
VL64   9900.038596 -34199.142439  67393.169478 999999.999999
*  2023  2 17  7 50 30.00000000
PL64  -1176.187122   5861.537184   3382.619363  18062.473775
VL64  10183.009291 -36415.266982  66179.017465 999999.999999
*  2023  2 17  7 51  0.00000000
PL64  -1145.239600   5749.015269   3579.243070  18062.933898
VL64  10445.197271 -38592.679969  64891.310588 999999.999999
*  2023  2 17  7 51 30.00000000
PL64  -1113.536846   5630.022334   3771.895093  18063.394038
VL64  10686.479359 -40728.865177  63531.472773 999999.999999
*  2023  2 17  7 52  0.00000000
PL64  -1081.141718   5504.685778   3960.361281  18063.854183
VL64  10906.767867 -42821.352328  62101.012188 999999.999999
*  2023  2 17  7 52 30.00000000
PL64  -1048.117285   5373.140338   4144.432130  18064.314321
VL64  11106.010939 -44867.722840  60601.518489 999999.999999
*  2023  2 17  7 53  0.00000000
PL64  -1014.526716   5235.527923   4323.903023  18064.774464
VL64  11284.191796 -46865.612960  59034.658552 999999.999999
*  2023  2 17  7 53 30.00000000
PL64   -980.433180   5091.997449   4498.574454  18065.234613
VL64  11441.328393 -48812.716520  57402.173207 999999.999999
*  2023  2 17  7 54  0.00000000
PL64   -945.899738   4942.704660   4668.252245  18065.694742
VL64  11577.473727 -50706.786401  55705.872357 999999.999999
*  2023  2 17  7 54 30.00000000
PL64   -910.989243   4787.811956   4832.747747  18066.154896
VL64  11692.714501 -52545.632546  53947.632975 999999.999999
*  2023  2 17  7 55  0.00000000
PL64   -875.764239   4627.488222   4991.878048  18066.615045
VL64  11787.168927 -54327.123236  52129.401115 999999.999999
*  2023  2 17  7 55 30.00000000
PL64   -840.286868   4461.908643   5145.466174  18067.075195
VL64  11860.986049 -56049.190027  50253.191829 999999.999999
*  2023  2 17  7 56  0.00000000
PL64   -804.618780   4291.254509   5293.341300  18067.535334
VL64  11914.346229 -57709.832154  48321.086015 999999.999999
*  2023  2 17  7 56 30.00000000
PL64   -768.821037   4115.713008   5435.338935  18067.995492
VL64  11947.461093 -59307.118360  46335.227049 999999.999999
*  2023  2 17  7 57  0.00000000
PL64   -732.954018   3935.477017   5571.301112  18068.455640
VL64  11960.572797 -60839.189312  44297.819410 999999.999999
*  2023  2 17  7 57 30.00000000
PL64   -697.077331   3750.744873   5701.076563  18068.915796
VL64  11953.954200 -62304.262169  42211.125124 999999.999999
*  2023  2 17  7 58  0.00000000
PL64   -661.249720   3561.720149   5824.520888  18069.375951
VL64  11927.908987 -63700.632035  40077.457840 999999.999999
*  2023  2 17  7 58 30.00000000
PL64   -625.528972   3368.611415   5941.496698  18069.836107
VL64  11882.770057 -65026.670596  37899.180159 999999.999999
*  2023  2 17  7 59  0.00000000
PL64   -589.971834   3171.632010   6051.873768  18070.296253
VL64  11818.897617 -66280.827339  35678.703525 999999.999999
*  2023  2 17  7 59 30.00000000
PL64   -554.633934   2970.999805   6155.529177  18070.756423
VL64  11736.678382 -67461.632824  33418.485904 999999.999999
*  2023  2 17  8  0  0.00000000
PL64   -519.569699   2766.936954   6252.347442  18071.216594
VL64  11636.525257 -68567.699850  31121.027887 999999.999999
*  2023  2 17  8  0 30.00000000
PL64   -484.832279   2559.669652   6342.220644  18071.676758
VL64  11518.877007 -69597.723577  28788.870950 999999.999999
*  2023  2 17  8  1  0.00000000
PL64   -450.473469   2349.427879   6425.048549  18072.136928
VL64  11384.197349 -70550.483868  26424.596453 999999.999999
*  2023  2 17  8  1 30.00000000
PL64   -416.543639   2136.445147   6500.738722  18072.597103
VL64  11232.974132 -71424.848716  24030.822645 999999.999999
*  2023  2 17  8  2  0.00000000
PL64   -383.091657   1920.958227   6569.206635  18073.057286
VL64  11065.718853 -72219.776641  21610.199734 999999.999999
*  2023  2 17  8  2 30.00000000
PL64   -350.164825   1703.206878   6630.375748  18073.517448
VL64  10882.965084 -72934.316414  19165.404717 999999.999999
*  2023  2 17  8  3  0.00000000
PL64   -317.808811   1483.433582   6684.177592  18073.977659
VL64  10685.267191 -73567.605444  16699.139296 999999.999999
*  2023  2 17  8  3 30.00000000
PL64   -286.067592   1261.883273   6730.551838 999999.999999
VL64  10473.200055 -74118.870488  14214.129315 999999.999999
*  2023  2 17  8  4  0.00000000
PL64   -254.983387   1038.803068   6769.446370  18074.898041
VL64  10247.357751 -74587.429659  11713.122524 999999.999999
*  2023  2 17  8  4 30.00000000
PL64   -224.596609    814.441993   6800.817343  18075.358218
VL64  10008.351621 -74972.693975   9198.885368 999999.999999
*  2023  2 17  8  5  0.00000000
PL64   -194.945814    589.050697   6824.629233  18075.818426
VL64   9756.809151 -75274.168259   6674.199614 999999.999999
*  2023  2 17  8  5 30.00000000
PL64   -166.067648    362.881177   6840.854885  18076.278606
VL64   9493.373208 -75491.451712   4141.859359 999999.999999
*  2023  2 17  8  6  0.00000000
PL64   -137.996811    136.186487   6849.475538  18076.738803
VL64   9218.701148 -75624.238579   1604.667795 999999.999999
*  2023  2 17  8  6 30.00000000
PL64   -110.766007    -90.779544   6850.480850  18077.198983
VL64   8933.463950 -75672.318153   -934.566235 999999.999999
*  2023  2 17  8  7  0.00000000
PL64    -84.405909   -317.762595   6843.868910  18077.659169
VL64   8638.345231 -75635.574308  -3473.030612 999999.999999
*  2023  2 17  8  7 30.00000000
PL64    -58.945123   -544.508142   6829.646249  18078.119363
VL64   8334.040024 -75513.986047  -6007.911522 999999.999999
*  2023  2 17  8  8  0.00000000
PL64    -34.410151   -770.761740   6807.827837  18078.579539
VL64   8021.253358 -75307.629128  -8536.396494 999999.999999
*  2023  2 17  8  8 30.00000000
PL64    -10.825371   -996.269318   6778.437074  18079.039726
VL64   7700.698799 -75016.676300 -11055.678577 999999.999999
*  2023  2 17  8  9  0.00000000
PL64     11.786995  -1220.777468   6741.505767  18079.499901
VL64   7373.097830 -74641.397047 -13562.959685 999999.999999
*  2023  2 17  8  9 30.00000000
PL64     33.406898  -1444.033736   6697.074102  18079.960085
VL64   7039.179038 -74182.157028 -16055.454834 999999.999999
*  2023  2 17  8 10  0.00000000
PL64     54.016485  -1665.786906   6645.190594  18080.420263
VL64   6699.675564 -73639.415684 -18530.394678 999999.999999
*  2023  2 17  8 10 30.00000000
PL64     73.600103  -1885.787279   6585.912044  18080.880414
VL64   6355.323153 -73013.726625 -20985.025194 999999.999999
*  2023  2 17  8 11  0.00000000
PL64     92.144313  -2103.786965   6519.303489  18081.340597
VL64   6006.859988 -72305.740616 -23416.610887 999999.999999
*  2023  2 17  8 11 30.00000000
PL64    109.637892  -2319.540171   6445.438135  18081.800761
VL64   5655.026415 -71516.205795 -25822.441102 999999.999999
EOF
